{
  "type": "FeatureCollection",
  "features": [
    {
      "type": "Feature",
      "properties": {
        "norad_id": 25590,
        "name": "COSMOS 2361",
        "group": "musson",
        "lat": 81.26334950062287,
        "lon": 102.23332350847149,
        "alt_km": 997.4185082821514,
        "timestamp": "2025-12-23T14:49:09.660690+00:00",
        "meta_object_name": "COSMOS 2361",
        "meta_object_id": "1998-076A",
        "meta_epoch": "2025-12-23T05:39:50.455296",
        "meta_mean_motion": 13.7321864,
        "meta_eccentricity": 0.00302473,
        "meta_inclination": 82.9344,
        "meta_ra_of_asc_node": 336.3228,
        "meta_arg_of_pericenter": 235.2147,
        "meta_mean_anomaly": 135.369,
        "meta_ephemeris_type": 0,
        "meta_classification_type": "U",
        "meta_norad_cat_id": 25590,
        "meta_element_set_no": 999,
        "meta_rev_at_epoch": 35255,
        "meta_bstar": 4.3948926e-05,
        "meta_mean_motion_dot": 5.6e-07,
        "meta_mean_motion_ddot": 0,
        "tle_line1": "1 25590U 98076A   25357.23600064  .00000056  00000+0  43949-4 0  9997",
        "tle_line2": "2 25590  82.9344 336.3228 0030247 235.2147 135.3690 13.73218640352552"
      },
      "geometry": {
        "type": "Point",
        "coordinates": [
          102.23332350847149,
          81.26334950062287
        ]
      }
    },
    {
      "type": "Feature",
      "properties": {
        "norad_id": 26818,
        "name": "COSMOS 2378",
        "group": "musson",
        "lat": -24.24652635085766,
        "lon": 174.86428879975054,
        "alt_km": 969.0997001005571,
        "timestamp": "2025-12-23T14:49:09.660713+00:00",
        "meta_object_name": "COSMOS 2378",
        "meta_object_id": "2001-023A",
        "meta_epoch": "2025-12-23T01:54:20.928096",
        "meta_mean_motion": 13.74142797,
        "meta_eccentricity": 0.00330436,
        "meta_inclination": 82.9271,
        "meta_ra_of_asc_node": 352.0576,
        "meta_arg_of_pericenter": 175.8748,
        "meta_mean_anomaly": 248.0135,
        "meta_ephemeris_type": 0,
        "meta_classification_type": "U",
        "meta_norad_cat_id": 26818,
        "meta_element_set_no": 999,
        "meta_rev_at_epoch": 23065,
        "meta_bstar": 2.666957e-05,
        "meta_mean_motion_dot": 4e-07,
        "meta_mean_motion_ddot": 0,
        "tle_line1": "1 26818U 01023A   25357.07940889  .00000040  00000+0  26670-4 0  9996",
        "tle_line2": "2 26818  82.9271 352.0576 0033043 175.8748 248.0135 13.74142797230651"
      },
      "geometry": {
        "type": "Point",
        "coordinates": [
          174.86428879975054,
          -24.24652635085766
        ]
      }
    },
    {
      "type": "Feature",
      "properties": {
        "norad_id": 27436,
        "name": "COSMOS 2389",
        "group": "musson",
        "lat": 82.85794725721014,
        "lon": 38.033197678589374,
        "alt_km": 956.2065625436699,
        "timestamp": "2025-12-23T14:49:09.660728+00:00",
        "meta_object_name": "COSMOS 2389",
        "meta_object_id": "2002-026A",
        "meta_epoch": "2025-12-23T02:12:35.088192",
        "meta_mean_motion": 13.75155716,
        "meta_eccentricity": 0.00471897,
        "meta_inclination": 82.9512,
        "meta_ra_of_asc_node": 299.3213,
        "meta_arg_of_pericenter": 32.5099,
        "meta_mean_anomaly": 338.5882,
        "meta_ephemeris_type": 0,
        "meta_classification_type": "U",
        "meta_norad_cat_id": 27436,
        "meta_element_set_no": 999,
        "meta_rev_at_epoch": 18291,
        "meta_bstar": 5.6166386e-05,
        "meta_mean_motion_dot": 7e-07,
        "meta_mean_motion_ddot": 0,
        "tle_line1": "1 27436U 02026A   25357.09207278  .00000070  00000+0  56166-4 0  9993",
        "tle_line2": "2 27436  82.9512 299.3213 0047189  32.5099 338.5882 13.75155716182916"
      },
      "geometry": {
        "type": "Point",
        "coordinates": [
          38.033197678589374,
          82.85794725721014
        ]
      }
    },
    {
      "type": "Feature",
      "properties": {
        "norad_id": 27818,
        "name": "COSMOS 2398",
        "group": "musson",
        "lat": -64.28875815355227,
        "lon": -110.21266019003873,
        "alt_km": 1018.6389944350349,
        "timestamp": "2025-12-23T14:49:09.660740+00:00",
        "meta_object_name": "COSMOS 2398",
        "meta_object_id": "2003-023A",
        "meta_epoch": "2025-12-23T05:22:57.155232",
        "meta_mean_motion": 13.72386871,
        "meta_eccentricity": 0.0032709,
        "meta_inclination": 82.9484,
        "meta_ra_of_asc_node": 264.9724,
        "meta_arg_of_pericenter": 83.8632,
        "meta_mean_anomaly": 69.6264,
        "meta_ephemeris_type": 0,
        "meta_classification_type": "U",
        "meta_norad_cat_id": 27818,
        "meta_element_set_no": 999,
        "meta_rev_at_epoch": 12960,
        "meta_bstar": 7.8743298e-05,
        "meta_mean_motion_dot": 8.8e-07,
        "meta_mean_motion_ddot": 0,
        "tle_line1": "1 27818U 03023A   25357.22427263  .00000088  00000+0  78743-4 0  9992",
        "tle_line2": "2 27818  82.9484 264.9724 0032709  83.8632  69.6264 13.72386871129605"
      },
      "geometry": {
        "type": "Point",
        "coordinates": [
          -110.21266019003873,
          -64.28875815355227
        ]
      }
    },
    {
      "type": "Feature",
      "properties": {
        "norad_id": 28380,
        "name": "COSMOS 2407",
        "group": "musson",
        "lat": -74.44841914251087,
        "lon": 178.47628385212855,
        "alt_km": 989.8950230168302,
        "timestamp": "2025-12-23T14:49:09.660752+00:00",
        "meta_object_name": "COSMOS 2407",
        "meta_object_id": "2004-028A",
        "meta_epoch": "2025-12-23T02:02:35.798784",
        "meta_mean_motion": 13.76314804,
        "meta_eccentricity": 0.00398444,
        "meta_inclination": 82.9596,
        "meta_ra_of_asc_node": 205.2329,
        "meta_arg_of_pericenter": 26.5976,
        "meta_mean_anomaly": 141.6851,
        "meta_ephemeris_type": 0,
        "meta_classification_type": "U",
        "meta_norad_cat_id": 28380,
        "meta_element_set_no": 999,
        "meta_rev_at_epoch": 7565,
        "meta_bstar": 4.031765e-05,
        "meta_mean_motion_dot": 5.5e-07,
        "meta_mean_motion_ddot": 0,
        "tle_line1": "1 28380U 04028A   25357.08513656  .00000055  00000+0  40318-4 0  9990",
        "tle_line2": "2 28380  82.9596 205.2329 0039844  26.5976 141.6851 13.76314804 75654"
      },
      "geometry": {
        "type": "Point",
        "coordinates": [
          178.47628385212855,
          -74.44841914251087
        ]
      }
    },
    {
      "type": "Feature",
      "properties": {
        "norad_id": 28521,
        "name": "COSMOS 2414",
        "group": "musson",
        "lat": -76.85612281515436,
        "lon": 144.427183154791,
        "alt_km": 973.2833820273436,
        "timestamp": "2025-12-23T14:49:09.660764+00:00",
        "meta_object_name": "COSMOS 2414",
        "meta_object_id": "2005-002A",
        "meta_epoch": "2025-12-23T04:49:12.346176",
        "meta_mean_motion": 13.87904296,
        "meta_eccentricity": 0.00413702,
        "meta_inclination": 82.9488,
        "meta_ra_of_asc_node": 176.7493,
        "meta_arg_of_pericenter": 110.6519,
        "meta_mean_anomaly": 249.9088,
        "meta_ephemeris_type": 0,
        "meta_classification_type": "U",
        "meta_norad_cat_id": 28521,
        "meta_element_set_no": 999,
        "meta_rev_at_epoch": 5940,
        "meta_bstar": 3.8846477e-05,
        "meta_mean_motion_dot": 6.3e-07,
        "meta_mean_motion_ddot": 0,
        "tle_line1": "1 28521U 05002A   25357.20083734  .00000063  00000+0  38846-4 0  9995",
        "tle_line2": "2 28521  82.9488 176.7493 0041370 110.6519 249.9088 13.87904296 59401"
      },
      "geometry": {
        "type": "Point",
        "coordinates": [
          144.427183154791,
          -76.85612281515436
        ]
      }
    },
    {
      "type": "Feature",
      "properties": {
        "norad_id": 32052,
        "name": "COSMOS 2429",
        "group": "musson",
        "lat": -80.88196199069552,
        "lon": -74.8515116146899,
        "alt_km": 989.4485514743474,
        "timestamp": "2025-12-23T14:49:09.660790+00:00",
        "meta_object_name": "COSMOS 2429",
        "meta_object_id": "2007-038A",
        "meta_epoch": "2025-12-23T01:15:22.856832",
        "meta_mean_motion": 13.75150388,
        "meta_eccentricity": 0.00386387,
        "meta_inclination": 82.9807,
        "meta_ra_of_asc_node": 335.7061,
        "meta_arg_of_pericenter": 9.5193,
        "meta_mean_anomaly": 350.6687,
        "meta_ephemeris_type": 0,
        "meta_classification_type": "U",
        "meta_norad_cat_id": 32052,
        "meta_element_set_no": 999,
        "meta_rev_at_epoch": 91744,
        "meta_bstar": 3.8660516e-05,
        "meta_mean_motion_dot": 5.2e-07,
        "meta_mean_motion_ddot": 0,
        "tle_line1": "1 32052U 07038A   25357.05234788  .00000052  00000+0  38661-4 0  9993",
        "tle_line2": "2 32052  82.9807 335.7061 0038638   9.5193 350.6687 13.75150388917449"
      },
      "geometry": {
        "type": "Point",
        "coordinates": [
          -74.8515116146899,
          -80.88196199069552
        ]
      }
    },
    {
      "type": "Feature",
      "properties": {
        "norad_id": 35635,
        "name": "COSMOS 2454",
        "group": "musson",
        "lat": 49.924321522961385,
        "lon": 168.84978541033507,
        "alt_km": 909.6973402702079,
        "timestamp": "2025-12-23T14:49:09.660804+00:00",
        "meta_object_name": "COSMOS 2454",
        "meta_object_id": "2009-039A",
        "meta_epoch": "2025-12-23T05:02:28.181760",
        "meta_mean_motion": 13.8992992,
        "meta_eccentricity": 0.00201084,
        "meta_inclination": 82.9556,
        "meta_ra_of_asc_node": 160.7077,
        "meta_arg_of_pericenter": 45.6047,
        "meta_mean_anomaly": 127.4016,
        "meta_ephemeris_type": 0,
        "meta_classification_type": "U",
        "meta_norad_cat_id": 35635,
        "meta_element_set_no": 999,
        "meta_rev_at_epoch": 83295,
        "meta_bstar": 4.6270001e-05,
        "meta_mean_motion_dot": 7.3e-07,
        "meta_mean_motion_ddot": 0,
        "tle_line1": "1 35635U 09039A   25357.21004840  .00000073  00000+0  46270-4 0  9996",
        "tle_line2": "2 35635  82.9556 160.7077 0020108  45.6047 127.4016 13.89929920832954"
      },
      "geometry": {
        "type": "Point",
        "coordinates": [
          168.84978541033507,
          49.924321522961385
        ]
      }
    },
    {
      "type": "Feature",
      "properties": {
        "norad_id": 36519,
        "name": "COSMOS 2463",
        "group": "musson",
        "lat": 80.93394286340954,
        "lon": 147.97198037530634,
        "alt_km": 1010.4954580829917,
        "timestamp": "2025-12-23T14:49:09.660816+00:00",
        "meta_object_name": "COSMOS 2463",
        "meta_object_id": "2010-017A",
        "meta_epoch": "2025-12-23T04:10:52.502592",
        "meta_mean_motion": 13.71650047,
        "meta_eccentricity": 0.00347734,
        "meta_inclination": 82.9604,
        "meta_ra_of_asc_node": 19.0443,
        "meta_arg_of_pericenter": 258.0168,
        "meta_mean_anomaly": 170.2922,
        "meta_ephemeris_type": 0,
        "meta_classification_type": "U",
        "meta_norad_cat_id": 36519,
        "meta_element_set_no": 999,
        "meta_rev_at_epoch": 78380,
        "meta_bstar": 3.4461345e-05,
        "meta_mean_motion_dot": 4.6e-07,
        "meta_mean_motion_ddot": 0,
        "tle_line1": "1 36519U 10017A   25357.17421878  .00000046  00000+0  34461-4 0  9994",
        "tle_line2": "2 36519  82.9604  19.0443 0034773 258.0168 170.2922 13.71650047783803"
      },
      "geometry": {
        "type": "Point",
        "coordinates": [
          147.97198037530634,
          80.93394286340954
        ]
      }
    }
  ]
}